NORAD_CAT_ID,OBJECT_NAME,OBJECT_TYPE,EPOCH,MEAN_MOTION,ECCENTRICITY,INCLINATION,RA_OF_ASC_NODE,ARG_OF_PERICENTER,MEAN_ANOMALY,BSTAR,MEAN_MOTION_DOT,MEAN_MOTION_DDOT,TLE_LINE0,TLE_LINE1,TLE_LINE2,SEMIMAJOR_AXIS,PERIOD,APOGEE,PERIGEE,DECAYED
54202.0,STARLINK-5205,PAYLOAD,2024-04-13 13:48:21,15.08814237,0.0001278,53.2184,234.2955,98.6101,261.5036,0.00040727,6.195e-05,0.0,0 STARLINK-5205,1 54202U 22141AX  24104.57524796  .00006195  00000-0  40727-3 0  9993,2 54202  53.2184 234.2955 0001278  98.6101 261.5036 15.08814237 81068,6917.959,95.439,540.708,538.94,0.0
54202.0,STARLINK-5205,PAYLOAD,2024-04-13 15:23:43,15.08840399,0.0001476,53.2184,233.998,98.1297,261.9863,1.8956e-05,1.4e-07,0.0,0 STARLINK-5205,1 54202U 22141AX  24104.64147728  .00000014  00000-0  18956-4 0  9991,2 54202  53.2184 233.9980 0001476  98.1297 261.9863 15.08840399 81300,6917.879,95.438,540.765,538.723,0.0
54202.0,STARLINK-5205,PAYLOAD,2024-04-14 15:14:30,15.08843485,0.0001527,53.2192,229.5393,96.0388,264.0778,0.00011075,1.475e-05,0.0,0 STARLINK-5205,1 54202U 22141AX  24105.63507423  .00001475  00000-0  11075-3 0  9999,2 54202  53.2192 229.5393 0001527  96.0388 264.0778 15.08843485 81222,6917.87,95.437,540.791,538.678,0.0
54202.0,STARLINK-5205,PAYLOAD,2024-04-15 11:54:31,15.08842919,0.0001444,53.2189,225.6687,88.2006,271.9151,0.00011298,1.511e-05,0.0,0 STARLINK-5205,1 54202U 22141AX  24106.49619546  .00001511  00000-0  11298-3 0  9992,2 54202  53.2189 225.6687 0001444  88.2006 271.9151 15.08842919 81581,6917.871,95.437,540.735,538.738,0.0
54202.0,STARLINK-5205,PAYLOAD,2024-04-15 13:29:54,15.08844099,0.0001483,53.2193,225.3724,89.9423,270.1739,0.00012488,1.7e-05,0.0,0 STARLINK-5205,1 54202U 22141AX  24106.56243462  .00001700  00000-0  12488-3 0  9992,2 54202  53.2193 225.3724 0001483  89.9423 270.1739 15.08844099 81369,6917.868,95.437,540.759,538.707,0.0
54202.0,STARLINK-5205,PAYLOAD,2024-04-15 15:05:17,15.0884867,0.0001426,53.2187,225.0802,98.3318,261.7836,0.00015747,2.22e-05,0.0,0 STARLINK-5205,1 54202U 22141AX  24106.62867139  .00002220  00000-0  15747-3 0  9991,2 54202  53.2187 225.0802 0001426  98.3318 261.7836 15.08848670 81600,6917.854,95.437,540.705,538.732,0.0
54202.0,STARLINK-5205,PAYLOAD,2024-04-16 13:20:41,15.08847843,0.0001835,53.2187,220.9146,56.0559,304.0607,6.0137e-05,6.69e-06,0.0,0 STARLINK-5205,1 54202U 22141AX  24107.55603682  .00000669  00000-0  60137-4 0  9994,2 54202  53.2187 220.9146 0001835  56.0559 304.0607 15.08847843 81740,6917.856,95.437,540.991,538.452,0.0
54202.0,STARLINK-5205,PAYLOAD,2024-04-16 14:56:03,15.08858291,0.0001384,53.2171,220.6147,95.9158,264.1992,0.0002784,4.148e-05,0.0,0 STARLINK-5205,1 54202U 22141AX  24107.62226797  .00004148  00000-0  27840-3 0  9999,2 54202  53.2171 220.6147 0001384  95.9158 264.1992 15.08858291 81750,6917.824,95.436,540.647,538.732,0.0
54202.0,STARLINK-5205,PAYLOAD,2024-04-17 11:36:05,15.08830245,0.0001193,53.2143,216.7483,82.9158,277.197,-0.00019101,-3.326e-05,0.0,0 STARLINK-5205,1 54202U 22141AX  24108.48340255 -.00003326  00000-0 -19101-3 0  9990,2 54202  53.2143 216.7483 0001193  82.9158 277.1970 15.08830245 81885,6917.91,95.438,540.601,538.95,0.0
54202.0,STARLINK-5205,PAYLOAD,2024-04-17 14:46:52,15.088361,0.000131,53.2173,216.152,82.2439,277.8702,-5.881e-05,-1.224e-05,0.0,0 STARLINK-5205,1 54202U 22141AX  24108.61588747 -.00001224  00000-0 -58810-4 0  9991,2 54202  53.2173 216.1520 0001310  82.2439 277.8702 15.08836100 81673,6917.892,95.438,540.664,538.851,0.0
54202.0,STARLINK-5205,PAYLOAD,2024-04-18 13:02:16,15.08836344,0.0002307,53.2169,211.9924,46.2568,313.8615,3.4596e-06,-2.33e-06,0.0,0 STARLINK-5205,1 54202U 22141AX  24109.54325192 -.00000233  00000-0  34596-5 0  9991,2 54202  53.2169 211.9924 0002307  46.2568 313.8615 15.08836344 82045,6917.892,95.438,541.353,538.161,0.0
54202.0,STARLINK-5205,PAYLOAD,2024-04-19 12:53:03,15.08841301,0.0001824,53.2162,207.5349,62.6155,297.5023,0.00036147,5.47e-05,0.0,0 STARLINK-5205,1 54202U 22141AX  24110.53685156  .00005470  00000-0  36147-3 0  9990,2 54202  53.2162 207.5349 0001824  62.6155 297.5023 15.08841301 81967,6917.876,95.437,541.003,538.48,0.0
54202.0,STARLINK-5205,PAYLOAD,2024-04-20 12:43:51,15.08802391,0.0001687,53.2176,203.0789,79.3908,280.7274,-0.00070032,-0.00011405,0.0,0 STARLINK-5205,1 54202U 22141AX  24111.53046207 -.00011405  00000-0 -70032-3 0  9997,2 54202  53.2176 203.0789 0001687  79.3908 280.7274 15.08802391 82340,6917.995,95.44,541.027,538.693,0.0
54202.0,STARLINK-5205,PAYLOAD,2024-04-21 12:34:38,15.08845837,0.0001733,53.2174,198.6085,101.0622,259.0566,8.827e-05,1.117e-05,0.0,0 STARLINK-5205,1 54202U 22141AX  24112.52405118  .00001117  00000-0  88270-4 0  9998,2 54202  53.2174 198.6085 0001733 101.0622 259.0566 15.08845837 82260,6917.863,95.437,540.926,538.529,0.0
54202.0,STARLINK-5205,PAYLOAD,2024-04-22 10:50:00,15.0887778,0.0001565,53.217,194.4464,110.8336,249.2824,0.00045019,6.891e-05,0.0,0 STARLINK-5205,1 54202U 22141AX  24113.45139192  .00006891  00000-0  45019-3 0  9994,2 54202  53.2170 194.4464 0001565 110.8336 249.2824 15.08877780 82635,6917.765,95.435,540.713,538.547,0.0
54202.0,STARLINK-5205,PAYLOAD,2024-04-23 10:40:48,15.08841553,0.0001861,53.2165,189.9827,126.3407,233.7757,-9.8696e-05,-1.859e-05,0.0,0 STARLINK-5205,1 54202U 22141AX  24114.44500670 -.00001859  00000-0 -98696-4 0  9998,2 54202  53.2165 189.9827 0001861 126.3407 233.7757 15.08841553 82789,6917.876,95.437,541.028,538.453,0.0
54202.0,STARLINK-5205,PAYLOAD,2024-04-24 12:06:58,15.08851946,0.000161,53.2168,185.2272,65.5825,294.5335,-8.5442e-05,-1.648e-05,0.0,0 STARLINK-5205,1 54202U 22141AX  24115.50484412 -.00001648  00000-0 -85442-4 0  9992,2 54202  53.2168 185.2272 0001610  65.5825 294.5335 15.08851946 82947,6917.844,95.437,540.823,538.595,0.0
54202.0,STARLINK-5205,PAYLOAD,2024-04-25 11:57:46,15.08839262,0.0001896,53.2169,180.7632,58.4014,301.7163,0.00017744,2.537e-05,0.0,0 STARLINK-5205,1 54202U 22141AX  24116.49845457  .00002537  00000-0  17744-3 0  9996,2 54202  53.2169 180.7632 0001896  58.4014 301.7163 15.08839262 83099,6917.883,95.438,541.059,538.436,0.0
54202.0,STARLINK-5205,PAYLOAD,2024-04-26 10:13:10,15.08844741,0.0001271,53.2145,176.6077,91.4209,268.6928,4.5284e-05,4.33e-06,0.0,0 STARLINK-5205,1 54202U 22141AX  24117.42581085  .00000433  00000-0  45284-4 0  9998,2 54202  53.2145 176.6077 0001271  91.4209 268.6928 15.08844741 83009,6917.866,95.437,540.61,538.852,0.0
54202.0,STARLINK-5205,PAYLOAD,2024-04-27 03:42:24,15.08844862,0.0001518,53.2155,173.3347,96.2351,263.8814,0.00013722,1.897e-05,0.0,0 STARLINK-5205,1 54202U 22141AX  24118.15445098  .00001897  00000-0  13722-3 0  9998,2 54202  53.2155 173.3347 0001518  96.2351 263.8814 15.08844862 83341,6917.866,95.437,540.781,538.68,0.0
54202.0,STARLINK-5205,PAYLOAD,2024-04-27 10:03:56,15.08848419,0.0001576,53.2158,172.1454,101.9384,258.1785,0.00017043,2.426e-05,0.0,0 STARLINK-5205,1 54202U 22141AX  24118.41940825  .00002426  00000-0  17043-3 0  9994,2 54202  53.2158 172.1454 0001576 101.9384 258.1785 15.08848419 83159,6917.855,95.437,540.81,538.629,0.0
54202.0,STARLINK-5205,PAYLOAD,2024-04-28 03:33:12,15.08833837,0.0001514,53.2152,168.8744,92.5737,267.5428,-5.7165e-05,-1.197e-05,0.0,0 STARLINK-5205,1 54202U 22141AX  24119.14805768 -.00001197  00000-0 -57165-4 0  9997,2 54202  53.2152 168.8744 0001514  92.5737 267.5428 15.08833837 83499,6917.899,95.438,540.812,538.717,0.0
54202.0,STARLINK-5205,PAYLOAD,2024-04-28 09:54:45,15.08829294,0.0001269,53.2146,167.6848,80.2856,279.828,-8.08e-05,-1.573e-05,0.0,0 STARLINK-5205,1 54202U 22141AX  24119.41302613 -.00001573  00000-0 -80800-4 0  9998,2 54202  53.2146 167.6848 0001269  80.2856 279.8280 15.08829294 83536,6917.913,95.438,540.656,538.9,0.0
54202.0,STARLINK-5205,PAYLOAD,2024-04-29 03:23:59,15.08836286,0.0001623,53.2158,164.4123,88.5023,271.6155,2.2849e-05,7.6e-07,0.0,0 STARLINK-5205,1 54202U 22141AX  24120.14166122  .00000076  00000-0  22849-4 0  9997,2 54202  53.2158 164.4123 0001623  88.5023 271.6155 15.08836286 83643,6917.892,95.438,540.88,538.634,0.0
54202.0,STARLINK-5205,PAYLOAD,2024-04-29 09:45:31,15.08842137,0.0001594,53.2163,163.2242,87.519,272.5985,8.7926e-05,1.112e-05,0.0,0 STARLINK-5205,1 54202U 22141AX  24120.40661677  .00001112  00000-0  87926-4 0  9990,2 54202  53.2163 163.2242 0001594  87.5190 272.5985 15.08842137 83451,6917.874,95.437,540.842,538.636,0.0
54202.0,STARLINK-5205,PAYLOAD,2024-04-30 01:39:23,15.08834522,0.0001648,53.2169,160.2515,79.4207,280.6971,0.00021428,3.123e-05,0.0,0 STARLINK-5205,1 54202U 22141AX  24121.06902080  .00003123  00000-0  21428-3 0  9997,2 54202  53.2169 160.2515 0001648  79.4207 280.6971 15.08834522 83786,6917.897,95.438,540.902,538.622,0.0
54202.0,STARLINK-5205,PAYLOAD,2024-04-30 09:36:19,15.08838427,0.000163,53.2168,158.7647,79.7096,280.408,0.0002564,3.795e-05,0.0,0 STARLINK-5205,1 54202U 22141AX  24121.40022098  .00003795  00000-0  25640-3 0  9992,2 54202  53.2168 158.7647 0001630  79.7096 280.4080 15.08838427 83601,6917.885,95.438,540.878,538.623,0.0
54202.0,STARLINK-5205,PAYLOAD,2024-04-30 19:08:37,15.08840201,0.0001671,53.2156,156.9812,79.7193,280.3988,9.1312e-05,1.165e-05,0.0,0 STARLINK-5205,1 54202U 22141AX  24121.79766053  .00001165  00000-0  91312-4 0  9999,2 54202  53.2156 156.9812 0001671  79.7193 280.3988 15.08840201 83660,6917.88,95.438,540.901,538.589,0.0
54202.0,STARLINK-5205,PAYLOAD,2024-05-01 03:05:33,15.08840859,0.0001651,53.2166,155.495,84.7842,275.3339,5.1414e-05,5.3e-06,0.0,0 STARLINK-5205,1 54202U 22141AX  24122.12886465  .00000530  00000-0  51414-4 0  9991,2 54202  53.2166 155.4950 0001651  84.7842 275.3339 15.08840859 83947,6917.878,95.438,540.885,538.601,0.0
54202.0,STARLINK-5205,PAYLOAD,2024-05-01 09:27:06,15.0884246,0.0001648,53.2166,154.3053,84.6439,275.4741,5.213e-05,5.42e-06,0.0,0 STARLINK-5205,1 54202U 22141AX  24122.39382302  .00000542  00000-0  52130-4 0  9990,2 54202  53.2166 154.3053 0001648  84.6439 275.4741 15.08842460 83753,6917.873,95.437,540.878,538.598,0.0
